COSMO-SKYMED 1          
1 31598U 07023A   26187.85133120  .00001819  00000+0  16249-3 0  9998
2 31598  97.8850  19.8735 0001020  88.5242 271.6096 14.97195202 32736
COSMOS 2428             
1 31792U 07029A   26187.68337007  .00000148  00000+0  10524-3 0  9995
2 31792  70.9381 313.5420 0007163  97.6151 262.5784 14.12930331980903
SL-16 R/B               
1 31793U 07029B   26187.70309036 -.00000192  00000+0 -74606-4 0  9993
2 31793  70.9758 282.2041 0002228 259.2695 211.8591 14.14851300982207
KORONAS-FOTON           
1 33504U 09003A   26187.88539994  .00007937  00000+0  16064-3 0  9991
2 33504  82.4300 151.7046 0012557  87.5241 272.7445 15.46154532964146
CZ-2C R/B               
1 37731U 11030B   26187.50305338  .00001174  00000+0  15329-3 0  9992
2 37731  97.8663 142.5419 0051347 325.1191 151.3776 14.81519616807681
H-2A R/B                
1 38341U 12025E   26187.69053480  .00002886  00000+0  26025-3 0  9999
2 38341  98.4843 164.4459 0042117 283.7589  75.8944 14.95818247766002
SHIJIAN-16 (SJ-16)      
1 39358U 13057A   26187.87815418  .00001304  00000+0  12904-3 0  9996
2 39358  74.9743 319.3868 0016108 184.9371 175.1662 14.92655437689288
SL-4 R/B                
1 39679U 14021B   26187.18041724  .00009839  00000+0  20259-3 0  9992
2 39679  51.6061 117.6981 0090159 175.3338 184.8508 15.42352336674546
ALOS-2                  
1 39766U 14029A   26187.82033331  .00001763  00000+0  24289-3 0  9998
2 39766  97.9223 284.7036 0001582  91.8245 268.3148 14.79470205654488
YAOGAN-29               
1 41038U 15069A   26187.87838763 -.00000179  00000+0 -15341-4 0  9997
2 41038  98.0019 216.5413 0001396  23.2235 336.9041 14.83100194573544
ASTRO-H (HITOMI)        
1 41337U 16012A   26187.39531014  .00003056  00000+0  17472-3 0  9995
2 41337  31.0000 310.1299 0009543  86.2299 273.9431 15.10606646570192
HXMT (HUIYAN)           
1 42758U 17034A   26187.86702255  .00003318  00000+0  16671-3 0  9998
2 42758  43.0141  73.4464 0032771 270.0489  89.6604 15.18636573500653
SAOCOM 1A               
1 43641U 18076A   26187.84910338  .00000268  00000+0  40184-4 0  9996
2 43641  97.8888  14.3118 0001519  79.5987 280.5398 14.82163652419015
H-2A R/B                
1 43682U 18084L   26187.74546264  .00016966  00000+0  34746-3 0  9990
2 43682  98.8544  70.9182 0021027 331.7008  28.3092 15.45963852424141
SAOCOM 1B               
1 46265U 20059A   26187.81282883  .00001138  00000+0  14952-3 0  9999
2 46265  97.8892  13.3717 0001596  81.3877 278.7517 14.82156548316398
CSS (TIANHE)            
1 48274U 21035A   26187.49735435  .00011627  00000+0  15480-3 0  9997
2 48274  41.4676 204.5488 0002947 273.1350  86.9151 15.58009548296180
COSMOS 2550             
1 48865U 21056A   26187.65167734  .00004595  00000+0  14569-3 0  9998
2 48865  67.1432  41.0273 0008429 272.3999  87.6191 15.33769080281709
CZ-2C R/B               
1 52794U 22058K   26187.04376094  .00045252  00000+0  47409-3 0  9995
2 52794  50.1852  65.3044 0031075 344.7676  15.2360 15.63290384228599
CZ-2C R/B               
1 54039U 22132E   26187.55889962  .00060423  00000+0  42127-3 0  9990
2 54039  97.2898 195.4804 0011399  18.3643 341.8031 15.74077379208993
GSLV R/B                
1 54149U 22138AN  26187.63273466  .00003073  00000+0  26078-3 0  9998
2 54149  87.3813 126.4542 0024164  80.1189 280.2769 14.97354081201721
XRISM                   
1 57800U 23137A   26187.52611569  .00003461  00000+0  18768-3 0  9991
2 57800  31.0012 234.3179 0007794 159.2962 200.7994 15.12631514155796
ACS3                    
1 59588U 24077B   26187.72088135  .00037453  00000+0  26167-1 0  9997
2 59588  97.1718 102.1729 0113209  46.1559 314.8897 13.95236626110766
SPACEMOBILE-003         
1 61045U 24163A   26177.81235899  .00001689  00000+0  90246-4 0  9998
2 61045  52.9744 265.1828 0005991 141.0621 219.0806 15.20822722 99230
SPACEMOBILE-005         
1 61046U 24163B   26187.32459636 -.00004321  00000+0 -17865-3 0  9996
2 61046  52.9788 221.3760 0009297 169.9979 190.1202 15.20800178100677
SPACEMOBILE-001         
1 61047U 24163C   26187.58603882  .00001897  00000+0  99523-4 0  9994
2 61047  52.9741 219.8899 0007438 169.1843 190.9313 15.20820517100714
SPACEMOBILE-002         
1 61048U 24163D   26187.57009700  .00004308  00000+0  20708-3 0  9991
2 61048  52.9753 220.0040 0006454 165.9423 194.1752 15.20857755100712
SPACEMOBILE-004         
1 61049U 24163E   26186.89536546  .00015654  00000+0  71381-3 0  9998
2 61049  52.9649 222.8932 0007122 193.0409 167.0402 15.20802887100612
CZ-8A R/B               
1 66004U 25231K   26187.61686190  .00000016  00000+0  63952-4 0  9995
2 66004  50.0052 316.6543 0116517 292.4061  66.4545 14.30160465 37722
SZ-21 MODULE            
1 66515U 25246C   26187.71783601  .00041467  00000+0  23570-3 0  9990
2 66515  41.4706 185.5326 0006261 159.8969 200.2123 15.78167802 36823
SPACEMOBILE-006         
1 67232U 25309A   26187.45801468  .00001228  00000+0  73867-4 0  9996
2 67232  52.9956 243.3614 0010687 186.7997 173.2853 15.18641781 29529
